STARLINK-33929          
1 64188U 25113U   26136.28532968  .00013257  00000+0  45880-3 0  9995
2 64188  53.1573 137.1973 0001053  90.2962 269.8160 15.30208457 55413
STARLINK-33872          
1 64189U 25113V   26136.00218194  .00016580  00000+0  50067-3 0  9993
2 64189  53.1576 137.5680 0001640  66.4700 293.6475 15.34404823 55348
STARLINK-34214          
1 64190U 25113W   26136.23266269  .00013937  00000+0  48168-3 0  9998
2 64190  53.1575 137.5794 0001227  88.2445 271.8696 15.30208053 55407
STARLINK-34222          
1 64191U 25113X   26136.23793746  .00009759  00000+0  34111-3 0  9994
2 64191  53.1564 137.6098 0001243  99.8303 260.2838 15.30205803 55368
STARLINK-34265          
1 64192U 25113Y   26136.22527589  .00013229  00000+0  45786-3 0  9991
2 64192  53.1571 137.5331 0001254  91.8171 268.2973 15.30208444 55365
STARLINK-34245          
1 64193U 25113Z   26136.28376295  .00013344  00000+0  40530-3 0  9994
2 64193  53.1591 136.4879 0000884 107.5466 252.5633 15.34405762 55380
STARLINK-34237          
1 64194U 25113AA  26136.25479897  .00021655  00000+0  70707-3 0  9997
2 64194  53.1599 137.0082 0001255  96.2233 263.8912 15.31722024 55375
STARLINK-33857          
1 64195U 25113AB  26136.19891438  .00105631  00000+0  35071-2 0  9991
2 64195  53.1582 137.3710 0014758  14.0622 346.0787 15.30299833 55360
STARLINK-34173          
1 64196U 25113AC  26136.20355256  .00012513  00000+0  41402-3 0  9999
2 64196  53.1591 137.4006 0001397  99.3440 260.7720 15.31721586 55409
SHIJIAN-26 (SJ-26)      
1 64199U 25115A   26136.20932784  .00003910  00000+0  16675-3 0  9996
2 64199  97.4559 214.9453 0020830 104.4045 255.9505 15.23327112 53577
NAVSTAR 84 (USA 545)    
1 64202U 25116A   26131.73938987 -.00000072  00000+0  00000+0 0  9994
2 64202  55.2115  32.5982 0008550 334.4876  58.4969  2.00578431  7140
STARLINK-33966          
1 64203U 25117A   26136.13975317  .00009602  00000+0  33587-3 0  9990
2 64203  53.1587  86.2323 0001296  71.4162 288.6979 15.30203908 54884
STARLINK-34331          
1 64204U 25117B   26136.29465349  .00006519  00000+0  23203-3 0  9995
2 64204  53.1586  85.7752 0001558  93.7833 266.3346 15.30201444 54870
STARLINK-34251          
1 64205U 25117C   26136.10187401  .00008902  00000+0  31227-3 0  9999
2 64205  53.1587  86.6997 0001341  91.9238 268.1917 15.30206787 54848
STARLINK-34311          
1 64206U 25117D   26136.17035481  .00010931  00000+0  38055-3 0  9998
2 64206  53.1587  86.4189 0001396  84.8300 275.2860 15.30208850 54884
STARLINK-34324          
1 64207U 25117E   26136.26721502  .00015313  00000+0  52787-3 0  9992
2 64207  53.1594  85.6070 0001445  90.0333 270.0833 15.30212568 53842
STARLINK-34327          
1 64208U 25117F   26136.12181221  .00008531  00000+0  29978-3 0  9996
2 64208  53.1599  86.1225 0001497  85.2267 274.8905 15.30204741 53818
STARLINK-33944          
1 64209U 25117G   26136.13130483  .00013853  00000+0  47875-3 0  9991
2 64209  53.1602  86.1837 0001497 145.6615 214.4483 15.30215689 54883
STARLINK-34310          
1 64210U 25117H   26136.25454983  .00015792  00000+0  54409-3 0  9995
2 64210  53.1598  85.5260 0001376  89.3438 270.7720 15.30204342 54877
STARLINK-34258          
1 64211U 25117J   26136.24294328  .00011696  00000+0  40632-3 0  9992
2 64211  53.1603  85.4530 0001469  84.9998 275.1170 15.30206809 54877
STARLINK-34284          
1 64212U 25117K   26136.11865915  .00010793  00000+0  37602-3 0  9995
2 64212  53.1608  86.0993 0001412  86.3721 273.7441 15.30198409 54850
STARLINK-34332          
1 64213U 25117L   26136.17457586  .00011216  00000+0  39010-3 0  9999
2 64213  53.1594  86.4424 0001357  94.7328 265.3827 15.30210239 54886
STARLINK-34283          
1 64214U 25117M   26136.13000947  .00027371  00000+0  81780-3 0  9991
2 64214  53.1601  85.4670 0001233  63.0191 297.0938 15.34417914 54864
STARLINK-34349          
1 64215U 25117N   26136.28198737  .00020556  00000+0  70389-3 0  9994
2 64215  53.1590  85.6931 0001509 101.8349 258.2821 15.30215815 54879
STARLINK-34296          
1 64216U 25117P   26136.26510320  .00017407  00000+0  59820-3 0  9997
2 64216  53.1596  85.5892 0001387  92.9278 267.1881 15.30213754 54905
STARLINK-34320          
1 64217U 25117Q   26136.17246514  .00010135  00000+0  35376-3 0  9990
2 64217  53.1594  86.4323 0001327  94.7317 265.3835 15.30207831 54853
STARLINK-34300          
1 64218U 25117R   26136.25560833  .00022890  00000+0  78230-3 0  9990
2 64218  53.1602  85.5350 0001599  85.0094 275.1089 15.30212354 54878
STARLINK-34323          
1 64219U 25117S   26136.26088072  .00022744  00000+0  77727-3 0  9990
2 64219  53.1599  85.5656 0001369  80.3130 279.8025 15.30216640 54904
STARLINK-34328          
1 64220U 25117T   26136.14504234  .00019478  00000+0  66750-3 0  9996
2 64220  53.1572  86.2579 0001281  76.8958 283.2186 15.30226606 54854
STARLINK-34326          
1 64221U 25117U   26136.27774726  .00024772  00000+0  84447-3 0  9992
2 64221  53.1584  85.6683 0001491 106.5303 253.5862 15.30248269 54901
