OBJECT_NAME,OBJECT_ID,EPOCH,MEAN_MOTION,ECCENTRICITY,INCLINATION,RA_OF_ASC_NODE,ARG_OF_PERICENTER,MEAN_ANOMALY,EPHEMERIS_TYPE,CLASSIFICATION_TYPE,NORAD_CAT_ID,ELEMENT_SET_NO,REV_AT_EPOCH,BSTAR,MEAN_MOTION_DOT,MEAN_MOTION_DDOT
STARLINK-33929,2025-113U,2026-05-16T06:50:52.484352,15.30208457,.00010534,53.1573,137.1973,90.2962,269.8160,0,U,64188,999,5541,.45879643E-3,.13257E-3,0
STARLINK-33872,2025-113V,2026-05-16T00:03:08.519616,15.34404823,.00016402,53.1576,137.5680,66.4700,293.6475,0,U,64189,999,5534,.500669E-3,.1658E-3,0
STARLINK-34214,2025-113W,2026-05-16T05:35:02.056416,15.30208053,.00012271,53.1575,137.5794,88.2445,271.8696,0,U,64190,999,5540,.48168265E-3,.13937E-3,0
STARLINK-34222,2025-113X,2026-05-16T05:42:37.796544,15.30205803,.0001243,53.1564,137.6098,99.8303,260.2838,0,U,64191,999,5536,.34111364E-3,.9759E-4,0
STARLINK-34265,2025-113Y,2026-05-16T05:24:23.836896,15.30208444,.00012544,53.1571,137.5331,91.8171,268.2973,0,U,64192,999,5536,.45785739E-3,.13229E-3,0
STARLINK-34245,2025-113Z,2026-05-16T06:48:37.118880,15.34405762,.00008846,53.1591,136.4879,107.5466,252.5633,0,U,64193,999,5538,.40529989E-3,.13344E-3,0
STARLINK-34237,2025-113AA,2026-05-16T06:06:54.631008,15.31722024,.00012556,53.1599,137.0082,96.2233,263.8912,0,U,64194,999,5537,.70706558E-3,.21655E-3,0
STARLINK-33857,2025-113AB,2026-05-16T04:46:26.202432,15.30299833,.00147588,53.1582,137.3710,14.0622,346.0787,0,U,64195,999,5536,.35070621E-2,.105631E-2,0
STARLINK-34173,2025-113AC,2026-05-16T04:53:06.941184,15.31721586,.00013975,53.1591,137.4006,99.3440,260.7720,0,U,64196,999,5540,.41402041E-3,.12513E-3,0
SHIJIAN-26 (SJ-26),2025-115A,2026-05-16T05:01:25.925376,15.23327112,.00208303,97.4559,214.9453,104.4045,255.9505,0,U,64199,999,5357,.16675462E-3,.391E-4,0
NAVSTAR 84 (USA 545),2025-116A,2026-05-11T17:44:43.284768,2.00578431,.00085508,55.2115,32.5982,334.4876,58.4969,0,U,64202,999,714,0,-.72E-6,0
STARLINK-33966,2025-117A,2026-05-16T03:21:14.673888,15.30203908,.00012969,53.1587,86.2323,71.4162,288.6979,0,U,64203,999,5488,.33586543E-3,.9602E-4,0
STARLINK-34331,2025-117B,2026-05-16T07:04:18.061536,15.30201444,.00015586,53.1586,85.7752,93.7833,266.3346,0,U,64204,999,5487,.23203463E-3,.6519E-4,0
STARLINK-34251,2025-117C,2026-05-16T02:26:41.914464,15.30206787,.00013414,53.1587,86.6997,91.9238,268.1917,0,U,64205,999,5484,.31226705E-3,.8902E-4,0
STARLINK-34311,2025-117D,2026-05-16T04:05:18.655584,15.30208850,.0001396,53.1587,86.4189,84.8300,275.2860,0,U,64206,999,5488,.38055179E-3,.10931E-3,0
STARLINK-34324,2025-117E,2026-05-16T06:24:47.377728,15.30212568,.00014459,53.1594,85.6070,90.0333,270.0833,0,U,64207,999,5384,.52787052E-3,.15313E-3,0
STARLINK-34327,2025-117F,2026-05-16T02:55:24.574944,15.30204741,.00014972,53.1599,86.1225,85.2267,274.8905,0,U,64208,999,5381,.29977856E-3,.8531E-4,0
STARLINK-33944,2025-117G,2026-05-16T03:09:04.737312,15.30215689,.00014971,53.1602,86.1837,145.6615,214.4483,0,U,64209,999,5488,.47874887E-3,.13853E-3,0
STARLINK-34310,2025-117H,2026-05-16T06:06:33.105312,15.30204342,.00013761,53.1598,85.5260,89.3438,270.7720,0,U,64210,999,5487,.54409175E-3,.15792E-3,0
STARLINK-34258,2025-117J,2026-05-16T05:49:50.299392,15.30206809,.00014691,53.1603,85.4530,84.9998,275.1170,0,U,64211,999,5487,.4063237E-3,.11696E-3,0
STARLINK-34284,2025-117K,2026-05-16T02:50:52.150560,15.30198409,.00014121,53.1608,86.0993,86.3721,273.7441,0,U,64212,999,5485,.37601882E-3,.10793E-3,0
STARLINK-34332,2025-117L,2026-05-16T04:11:23.354304,15.30210239,.0001357,53.1594,86.4424,94.7328,265.3827,0,U,64213,999,5488,.39010432E-3,.11216E-3,0
STARLINK-34283,2025-117M,2026-05-16T03:07:12.818208,15.34417914,.00012335,53.1601,85.4670,63.0191,297.0938,0,U,64214,999,5486,.8177957E-3,.27371E-3,0
STARLINK-34349,2025-117N,2026-05-16T06:46:03.708768,15.30215815,.00015094,53.1590,85.6931,101.8349,258.2821,0,U,64215,999,5487,.70389258E-3,.20556E-3,0
STARLINK-34296,2025-117P,2026-05-16T06:21:44.916480,15.30213754,.00013875,53.1596,85.5892,92.9278,267.1881,0,U,64216,999,5490,.59819864E-3,.17407E-3,0
STARLINK-34320,2025-117Q,2026-05-16T04:08:20.988096,15.30207831,.00013275,53.1594,86.4323,94.7317,265.3835,0,U,64217,999,5485,.35376199E-3,.10135E-3,0
STARLINK-34300,2025-117R,2026-05-16T06:08:04.559712,15.30212354,.00015999,53.1602,85.5350,85.0094,275.1089,0,U,64218,999,5487,.78229665E-3,.2289E-3,0
STARLINK-34323,2025-117S,2026-05-16T06:15:40.094208,15.30216640,.00013696,53.1599,85.5656,80.3130,279.8025,0,U,64219,999,5490,.77726996E-3,.22744E-3,0
STARLINK-34328,2025-117T,2026-05-16T03:28:51.658176,15.30226606,.00012814,53.1572,86.2579,76.8958,283.2186,0,U,64220,999,5485,.66750277E-3,.19478E-3,0
STARLINK-34326,2025-117U,2026-05-16T06:39:57.363264,15.30248269,.00014912,53.1584,85.6683,106.5303,253.5862,0,U,64221,999,5490,.84446702E-3,.24772E-3,0
